[{"OBJECT_NAME":"YAOGAN-30 10A","OBJECT_ID":"2021-055A","EPOCH":"2026-03-09T23:48:28.291104","MEAN_MOTION":15.02193247,"ECCENTRICITY":0.0004983,"INCLINATION":34.9965,"RA_OF_ASC_NODE":36.5937,"ARG_OF_PERICENTER":279.793,"MEAN_ANOMALY":80.2215,"EPHEMERIS_TYPE":0,"CLASSIFICATION_TYPE":"U","NORAD_CAT_ID":48860,"ELEMENT_SET_NO":999,"REV_AT_EPOCH":25825,"BSTAR":0.00036861198,"MEAN_MOTION_DOT":4.929e-5,"MEAN_MOTION_DDOT":0},{"OBJECT_NAME":"STARLINK-30516","OBJECT_ID":"2023-151W","EPOCH":"2026-03-09T04:28:17.903712","MEAN_MOTION":15.02532534,"ECCENTRICITY":0.00013964,"INCLINATION":43.0067,"RA_OF_ASC_NODE":354.6049,"ARG_OF_PERICENTER":263.8526,"MEAN_ANOMALY":96.2158,"EPHEMERIS_TYPE":0,"CLASSIFICATION_TYPE":"U","NORAD_CAT_ID":57984,"ELEMENT_SET_NO":999,"REV_AT_EPOCH":13550,"BSTAR":-5.3591274e-5,"MEAN_MOTION_DOT":-9.27e-6,"MEAN_MOTION_DDOT":0}]
